ECHOSTAR 15             
1 36792U 10034A   17345.77407059 -.00000288  00000-0  00000-0 0  9993
2 36792   0.0111 333.8962 0002287 312.2497  11.5546  1.00271138 27175
